ONEWEB-0641             
1 55805U 23029K   23286.52126110  .00000147  00000+0  33534-3 0  9990
2 55805  87.9146 139.5798 0001802  68.9629 291.1697 13.19725196 30656
ONEWEB-0642             
1 55806U 23029L   23286.28906004 -.00000043  00000+0 -13940-3 0  9998
2 55806  87.9209 139.6055 0002296  47.8877 312.2450 13.19728102 30611
ONEWEB-0643             
1 55807U 23029M   23286.48863841 -.00000039  00000+0 -14092-3 0  9996
2 55807  87.8964 124.3479 0001824  38.3898 321.7361 13.14497791 31657
ONEWEB-0644             
1 55808U 23029N   23285.75362839  .00000129  00000+0  28927-3 0  9997
2 55808  87.9140 139.7187 0001977  57.7215 302.4109 13.19726610 29853
ONEWEB-0645             
1 55809U 23029P   23285.82548372  .00000053  00000+0  10030-3 0  9996
2 55809  87.9211 139.6934 0002250  69.1225 291.0148 13.19723520 29869
ONEWEB-0646             
1 55810U 23029Q   23286.53785655  .00000102  00000+0  22261-3 0  9998
2 55810  87.9211 139.5550 0001661  67.8843 292.2466 13.19725594 30636
ONEWEB-0648             
1 55811U 23029R   23285.91769468  .00000125  00000+0  30185-3 0  9993
2 55811  87.8964 124.4272 0002564  57.7449 302.3929 13.14506880 30871
ONEWEB-0649             
1 55812U 23029S   23285.66675037  .00000156  00000+0  35825-3 0  9994
2 55812  87.9215 139.7280 0002119  66.1177 294.0178 13.19725812 29861
